STARLINK-1527           
1 46048U 20055X   26068.53013343  .00011339  00000+0  39455-3 0  9993
2 46048  53.1608 114.6784 0001302 108.7364 251.3778 15.30184962309029
SHERPA-LTC2             
1 53754U 22107BG  26068.71842008  .00004161  00000+0  22220-3 0  9990
2 53754  53.2359 281.0426 0397806 308.3547  48.2298 14.68527555187927
